[{"OBJECT_NAME":"ONEWEB-0383","OBJECT_ID":"2021-090AG","EPOCH":"2025-12-09T10:07:50.569248","MEAN_MOTION":13.14503345,"ECCENTRICITY":0.00018948,"INCLINATION":87.8993,"RA_OF_ASC_NODE":327.4974,"ARG_OF_PERICENTER":90.2212,"MEAN_ANOMALY":269.9135,"EPHEMERIS_TYPE":0,"CLASSIFICATION_TYPE":"U","NORAD_CAT_ID":49309,"ELEMENT_SET_NO":999,"REV_AT_EPOCH":20266,"BSTAR":0.00058149243,"MEAN_MOTION_DOT":2.28e-6,"MEAN_MOTION_DDOT":0},{"OBJECT_NAME":"ONEWEB-0384","OBJECT_ID":"2021-090AH","EPOCH":"2025-12-09T10:39:36.293184","MEAN_MOTION":13.20799087,"ECCENTRICITY":0.00020697,"INCLINATION":87.921,"RA_OF_ASC_NODE":312.3101,"ARG_OF_PERICENTER":97.0789,"MEAN_ANOMALY":263.058,"EPHEMERIS_TYPE":0,"CLASSIFICATION_TYPE":"U","NORAD_CAT_ID":49310,"ELEMENT_SET_NO":999,"REV_AT_EPOCH":20478,"BSTAR":-8.023193e-6,"MEAN_MOTION_DOT":1.0e-7,"MEAN_MOTION_DDOT":0},{"OBJECT_NAME":"ONEWEB-0385","OBJECT_ID":"2021-090AJ","EPOCH":"2025-12-09T10:37:37.200288","MEAN_MOTION":13.20768858,"ECCENTRICITY":0.00018294,"INCLINATION":87.9191,"RA_OF_ASC_NODE":312.2799,"ARG_OF_PERICENTER":88.5393,"MEAN_ANOMALY":271.595,"EPHEMERIS_TYPE":0,"CLASSIFICATION_TYPE":"U","NORAD_CAT_ID":49311,"ELEMENT_SET_NO":999,"REV_AT_EPOCH":20475,"BSTAR":-2.5279544e-5,"MEAN_MOTION_DOT":3.0e-8,"MEAN_MOTION_DDOT":0},{"OBJECT_NAME":"ONEWEB-0386","OBJECT_ID":"2021-090AK","EPOCH":"2025-12-09T11:02:37.558752","MEAN_MOTION":13.20769981,"ECCENTRICITY":0.00019371,"INCLINATION":87.9201,"RA_OF_ASC_NODE":312.2602,"ARG_OF_PERICENTER":91.2148,"MEAN_ANOMALY":268.9207,"EPHEMERIS_TYPE":0,"CLASSIFICATION_TYPE":"U","NORAD_CAT_ID":49312,"ELEMENT_SET_NO":999,"REV_AT_EPOCH":20477,"BSTAR":9.799363e-5,"MEAN_MOTION_DOT":5.3e-7,"MEAN_MOTION_DDOT":0},{"OBJECT_NAME":"ONEWEB-0387","OBJECT_ID":"2021-090AL","EPOCH":"2025-12-09T10:39:54.292032","MEAN_MOTION":13.20773944,"ECCENTRICITY":0.00015518,"INCLINATION":87.919,"RA_OF_ASC_NODE":312.3091,"ARG_OF_PERICENTER":89.7676,"MEAN_ANOMALY":270.3635,"EPHEMERIS_TYPE":0,"CLASSIFICATION_TYPE":"U","NORAD_CAT_ID":49313,"ELEMENT_SET_NO":999,"REV_AT_EPOCH":20477,"BSTAR":5.9928378e-5,"MEAN_MOTION_DOT":3.7e-7,"MEAN_MOTION_DDOT":0},{"OBJECT_NAME":"ONEWEB-0388","OBJECT_ID":"2021-090AM","EPOCH":"2025-12-09T11:40:56.931456","MEAN_MOTION":13.19724185,"ECCENTRICITY":0.00018507,"INCLINATION":87.919,"RA_OF_ASC_NODE":342.7222,"ARG_OF_PERICENTER":93.1773,"MEAN_ANOMALY":266.9571,"EPHEMERIS_TYPE":0,"CLASSIFICATION_TYPE":"U","NORAD_CAT_ID":49314,"ELEMENT_SET_NO":999,"REV_AT_EPOCH":20139,"BSTAR":-4.3831735e-5,"MEAN_MOTION_DOT":-5.0e-8,"MEAN_MOTION_DDOT":0},{"OBJECT_NAME":"ONEWEB-0389","OBJECT_ID":"2021-132A","EPOCH":"2025-12-09T10:25:17.148864","MEAN_MOTION":13.1764839,"ECCENTRICITY":0.00017375,"INCLINATION":87.9117,"RA_OF_ASC_NODE":43.6029,"ARG_OF_PERICENTER":113.3849,"MEAN_ANOMALY":246.7465,"EPHEMERIS_TYPE":0,"CLASSIFICATION_TYPE":"U","NORAD_CAT_ID":50469,"ELEMENT_SET_NO":999,"REV_AT_EPOCH":19309,"BSTAR":0.00026648018,"MEAN_MOTION_DOT":1.16e-6,"MEAN_MOTION_DDOT":0},{"OBJECT_NAME":"ONEWEB-0390","OBJECT_ID":"2021-132B","EPOCH":"2025-12-09T14:06:24.979968","MEAN_MOTION":13.17649622,"ECCENTRICITY":0.00014966,"INCLINATION":87.9113,"RA_OF_ASC_NODE":43.5746,"ARG_OF_PERICENTER":95.9047,"MEAN_ANOMALY":264.2255,"EPHEMERIS_TYPE":0,"CLASSIFICATION_TYPE":"U","NORAD_CAT_ID":50470,"ELEMENT_SET_NO":999,"REV_AT_EPOCH":19311,"BSTAR":0.00011348424,"MEAN_MOTION_DOT":5.7e-7,"MEAN_MOTION_DDOT":0},{"OBJECT_NAME":"ONEWEB-0391","OBJECT_ID":"2021-132C","EPOCH":"2025-12-09T10:30:08.633952","MEAN_MOTION":13.17649416,"ECCENTRICITY":0.00013574,"INCLINATION":87.9112,"RA_OF_ASC_NODE":43.6141,"ARG_OF_PERICENTER":130.7295,"MEAN_ANOMALY":229.3955,"EPHEMERIS_TYPE":0,"CLASSIFICATION_TYPE":"U","NORAD_CAT_ID":50471,"ELEMENT_SET_NO":999,"REV_AT_EPOCH":19309,"BSTAR":6.5795669e-5,"MEAN_MOTION_DOT":3.8e-7,"MEAN_MOTION_DDOT":0},{"OBJECT_NAME":"ONEWEB-0392","OBJECT_ID":"2021-132D","EPOCH":"2025-12-09T11:13:53.262912","MEAN_MOTION":13.17649219,"ECCENTRICITY":0.00016419,"INCLINATION":87.912,"RA_OF_ASC_NODE":43.5599,"ARG_OF_PERICENTER":113.6398,"MEAN_ANOMALY":246.4906,"EPHEMERIS_TYPE":0,"CLASSIFICATION_TYPE":"U","NORAD_CAT_ID":50472,"ELEMENT_SET_NO":999,"REV_AT_EPOCH":19313,"BSTAR":0.00022141882,"MEAN_MOTION_DOT":9.9e-7,"MEAN_MOTION_DDOT":0},{"OBJECT_NAME":"ONEWEB-0393","OBJECT_ID":"2021-132E","EPOCH":"2025-12-09T14:13:53.723424","MEAN_MOTION":13.17648439,"ECCENTRICITY":0.0001694,"INCLINATION":87.9122,"RA_OF_ASC_NODE":43.5571,"ARG_OF_PERICENTER":107.262,"MEAN_ANOMALY":252.8697,"EPHEMERIS_TYPE":0,"CLASSIFICATION_TYPE":"U","NORAD_CAT_ID":50473,"ELEMENT_SET_NO":999,"REV_AT_EPOCH":19314,"BSTAR":0.00012219278,"MEAN_MOTION_DOT":6.0e-7,"MEAN_MOTION_DDOT":0},{"OBJECT_NAME":"ONEWEB-0394","OBJECT_ID":"2021-132F","EPOCH":"2025-12-09T11:34:45.376896","MEAN_MOTION":13.18685823,"ECCENTRICITY":0.00017773,"INCLINATION":87.9182,"RA_OF_ASC_NODE":13.116,"ARG_OF_PERICENTER":100.8072,"MEAN_ANOMALY":259.3261,"EPHEMERIS_TYPE":0,"CLASSIFICATION_TYPE":"U","NORAD_CAT_ID":50474,"ELEMENT_SET_NO":999,"REV_AT_EPOCH":19659,"BSTAR":0.00013187923,"MEAN_MOTION_DOT":6.5e-7,"MEAN_MOTION_DDOT":0},{"OBJECT_NAME":"ONEWEB-0395","OBJECT_ID":"2021-132G","EPOCH":"2025-12-09T11:50:17.508480","MEAN_MOTION":13.11420452,"ECCENTRICITY":0.00014244,"INCLINATION":87.8859,"RA_OF_ASC_NODE":58.8511,"ARG_OF_PERICENTER":104.0614,"MEAN_ANOMALY":256.0672,"EPHEMERIS_TYPE":0,"CLASSIFICATION_TYPE":"U","NORAD_CAT_ID":50475,"ELEMENT_SET_NO":999,"REV_AT_EPOCH":19085,"BSTAR":9.7730972e-5,"MEAN_MOTION_DOT":4.7e-7,"MEAN_MOTION_DDOT":0},{"OBJECT_NAME":"ONEWEB-0396","OBJECT_ID":"2021-132H","EPOCH":"2025-12-09T11:25:15.542976","MEAN_MOTION":13.18685565,"ECCENTRICITY":0.00017768,"INCLINATION":87.9182,"RA_OF_ASC_NODE":13.1296,"ARG_OF_PERICENTER":98.7011,"MEAN_ANOMALY":261.4323,"EPHEMERIS_TYPE":0,"CLASSIFICATION_TYPE":"U","NORAD_CAT_ID":50476,"ELEMENT_SET_NO":999,"REV_AT_EPOCH":19663,"BSTAR":-0.00016093868,"MEAN_MOTION_DOT":-5.1e-7,"MEAN_MOTION_DDOT":0},{"OBJECT_NAME":"ONEWEB-0397","OBJECT_ID":"2021-132J","EPOCH":"2025-12-09T11:46:37.947936","MEAN_MOTION":13.18687072,"ECCENTRICITY":0.00019332,"INCLINATION":87.9187,"RA_OF_ASC_NODE":13.127,"ARG_OF_PERICENTER":100.6458,"MEAN_ANOMALY":259.4892,"EPHEMERIS_TYPE":0,"CLASSIFICATION_TYPE":"U","NORAD_CAT_ID":50477,"ELEMENT_SET_NO":999,"REV_AT_EPOCH":19661,"BSTAR":-1.1425088e-5,"MEAN_MOTION_DOT":8.0e-8,"MEAN_MOTION_DDOT":0},{"OBJECT_NAME":"ONEWEB-0398","OBJECT_ID":"2021-132K","EPOCH":"2025-12-09T14:43:38.616960","MEAN_MOTION":13.11412803,"ECCENTRICITY":0.00013023,"INCLINATION":87.8865,"RA_OF_ASC_NODE":58.8,"ARG_OF_PERICENTER":97.3506,"MEAN_ANOMALY":262.777,"EPHEMERIS_TYPE":0,"CLASSIFICATION_TYPE":"U","NORAD_CAT_ID":50478,"ELEMENT_SET_NO":999,"REV_AT_EPOCH":19076,"BSTAR":-0.00062253854,"MEAN_MOTION_DOT":-2.08e-6,"MEAN_MOTION_DDOT":0},{"OBJECT_NAME":"ONEWEB-0399","OBJECT_ID":"2021-132L","EPOCH":"2025-12-09T10:44:23.075520","MEAN_MOTION":13.11417266,"ECCENTRICITY":0.0001817,"INCLINATION":87.8857,"RA_OF_ASC_NODE":58.8472,"ARG_OF_PERICENTER":120.8549,"MEAN_ANOMALY":239.2758,"EPHEMERIS_TYPE":0,"CLASSIFICATION_TYPE":"U","NORAD_CAT_ID":50479,"ELEMENT_SET_NO":999,"REV_AT_EPOCH":19073,"BSTAR":0.0010656129,"MEAN_MOTION_DOT":3.9e-6,"MEAN_MOTION_DDOT":0}]
