ONEWEB-0383             
1 49309U 21090AG  25343.42211307  .00000228  00000+0  58149-3 0  9995
2 49309  87.8993 327.4974 0001894  90.2212 269.9135 13.14503345202665
ONEWEB-0384             
1 49310U 21090AH  25343.44417006  .00000010  00000+0 -80232-5 0  9993
2 49310  87.9210 312.3101 0002069  97.0789 263.0580 13.20799087204785
ONEWEB-0385             
1 49311U 21090AJ  25343.44279167  .00000003  00000+0 -25280-4 0  9991
2 49311  87.9191 312.2799 0001829  88.5393 271.5950 13.20768858204759
ONEWEB-0386             
1 49312U 21090AK  25343.46015693  .00000053  00000+0  97994-4 0  9991
2 49312  87.9201 312.2602 0001937  91.2148 268.9207 13.20769981204779
ONEWEB-0387             
1 49313U 21090AL  25343.44437838  .00000037  00000+0  59928-4 0  9996
2 49313  87.9190 312.3091 0001551  89.7676 270.3635 13.20773944204776
ONEWEB-0388             
1 49314U 21090AM  25343.48677004 -.00000005  00000+0 -43832-4 0  9996
2 49314  87.9190 342.7222 0001850  93.1773 266.9571 13.19724185201395
ONEWEB-0389             
1 50469U 21132A   25343.43422626  .00000116  00000+0  26648-3 0  9995
2 50469  87.9117  43.6029 0001737 113.3849 246.7465 13.17648390193098
ONEWEB-0390             
1 50470U 21132B   25343.58778912  .00000057  00000+0  11348-3 0  9990
2 50470  87.9113  43.5746 0001496  95.9047 264.2255 13.17649622193112
ONEWEB-0391             
1 50471U 21132C   25343.43759993  .00000038  00000+0  65796-4 0  9999
2 50471  87.9112  43.6141 0001357 130.7295 229.3955 13.17649416193098
ONEWEB-0392             
1 50472U 21132D   25343.46797758  .00000099  00000+0  22142-3 0  9998
2 50472  87.9120  43.5599 0001641 113.6398 246.4906 13.17649219193136
ONEWEB-0393             
1 50473U 21132E   25343.59298291  .00000060  00000+0  12219-3 0  9993
2 50473  87.9122  43.5571 0001694 107.2620 252.8697 13.17648439193146
ONEWEB-0394             
1 50474U 21132F   25343.48246964  .00000065  00000+0  13188-3 0  9993
2 50474  87.9182  13.1160 0001777 100.8072 259.3261 13.18685823196592
ONEWEB-0395             
1 50475U 21132G   25343.49325820  .00000047  00000+0  97731-4 0  9991
2 50475  87.8859  58.8511 0001424 104.0614 256.0672 13.11420452190857
ONEWEB-0396             
1 50476U 21132H   25343.47587434 -.00000051  00000+0 -16094-3 0  9990
2 50476  87.9182  13.1296 0001776  98.7011 261.4323 13.18685565196632
ONEWEB-0397             
1 50477U 21132J   25343.49071699  .00000008  00000+0 -11425-4 0  9999
2 50477  87.9187  13.1270 0001933 100.6458 259.4892 13.18687072196614
ONEWEB-0398             
1 50478U 21132K   25343.61364140 -.00000208  00000+0 -62254-3 0  9998
2 50478  87.8865  58.8000 0001302  97.3506 262.7770 13.11412803190763
ONEWEB-0399             
1 50479U 21132L   25343.44748930  .00000390  00000+0  10656-2 0  9991
2 50479  87.8857  58.8472 0001817 120.8549 239.2758 13.11417266190738
